COSMOS 2251 DEB         
1 36061U 93036AXY 17345.48601953  .00000149  00000-0  67795-4 0  9995
2 36061  74.0255 284.7245 0041218 348.1802  11.8376 14.29731601232956
